ZIYUAN 3-04 (ZY 3-04)   
1 67131U 25300A   26009.18248613  .00001730  00000+0  80130-4 0  9994
2 67131  97.4889  88.1516 0003945 118.6144 241.5489 15.21458354  3666
CZ-4B R/B               
1 67132U 25300B   26012.25472347  .00135677  77110-5  53801-3 0  9994
2 67132  97.5506  93.4107 0152761 276.5441  81.8451 15.70941637  4259
KUIPER-00144            
1 67133U 25301A   26012.16229579 -.01520725  00000+0 -48998-1 0  9995
2 67133  51.8725 338.3948 0017669 133.1102 227.1365 15.34713384  5042
KUIPER-00164            
1 67134U 25301B   26012.08571653  .00038046  00000+0  10493-2 0  9997
2 67134  51.8741 338.6334 0003285 154.6027 205.5122 15.36730723  5214
KUIPER-00175            
1 67135U 25301C   26012.27187176  .00038054  00000+0  10314-2 0  9993
2 67135  51.8747 337.6328 0002885 104.1919 255.9388 15.37271484  5137
KUIPER-00179            
1 67136U 25301D   26012.27838180  .00028247  00000+0  78019-3 0  9992
2 67136  51.8747 337.6749 0003263 128.7197 231.4081 15.36834768  5246
KUIPER-00181            
1 67137U 25301E   26012.31155562  .00031622  00000+0  92745-3 0  9997
2 67137  51.8651 337.8788 0011194 200.4157 159.6382 15.34843843  5227
KUIPER-00183            
1 67138U 25301F   26011.92535923  .00030942  00000+0  90800-3 0  9991
2 67138  51.8621 339.7844 0011413 198.2536 161.8041 15.34835399  5176
KUIPER-00184            
1 67139U 25301G   26011.98449690  .00033016  00000+0  96091-3 0  9996
2 67139  51.8642 339.4343 0009108 196.8483 163.2201 15.35084623  5298
KUIPER-00186            
1 67140U 25301H   26012.10341664  .00033374  00000+0  94629-3 0  9997
2 67140  51.8711 338.7439 0008208 182.3768 177.7181 15.35905512  5039
KUIPER-00187            
1 67141U 25301J   26012.29040696 -.00059699  00000+0 -18462-2 0  9999
2 67141  51.8739 337.7398 0005741 171.7637 188.3443 15.33016716  5068
KUIPER-00188            
1 67142U 25301K   26012.10532125  .00034561  00000+0  98546-3 0  9994
2 67142  51.8712 338.7574 0007423 191.2281 168.8540 15.35718184  5036
